[{"OBJECT_NAME":"OBJECT H","OBJECT_ID":"2024-092H","EPOCH":"2026-03-09T22:10:57.432576","MEAN_MOTION":14.31801309,"ECCENTRICITY":0.00131217,"INCLINATION":98.6549,"RA_OF_ASC_NODE":188.1402,"ARG_OF_PERICENTER":138.5744,"MEAN_ANOMALY":221.6437,"EPHEMERIS_TYPE":0,"CLASSIFICATION_TYPE":"U","NORAD_CAT_ID":59780,"ELEMENT_SET_NO":999,"REV_AT_EPOCH":9469,"BSTAR":0.00013575326,"MEAN_MOTION_DOT":3.19e-6,"MEAN_MOTION_DDOT":0},{"OBJECT_NAME":"DMSP 5D-3 F17 DEB","OBJECT_ID":"2006-050D","EPOCH":"2026-03-09T14:21:14.246784","MEAN_MOTION":14.30905253,"ECCENTRICITY":0.0005738,"INCLINATION":98.5443,"RA_OF_ASC_NODE":89.8351,"ARG_OF_PERICENTER":75.494,"MEAN_ANOMALY":45.9781,"EPHEMERIS_TYPE":0,"CLASSIFICATION_TYPE":"U","NORAD_CAT_ID":29525,"ELEMENT_SET_NO":999,"REV_AT_EPOCH":219,"BSTAR":0.0010117,"MEAN_MOTION_DOT":2.614e-5,"MEAN_MOTION_DDOT":0}]
